STARLINK-4022           
1 52629U 22052AH  26196.81653892 -.00000171  00000+0  73591-5 0  9990
2 52629  53.1614  53.6332 0001388  95.8871 264.2278 15.08831587230334
STARLINK-3989           
1 52630U 22052AJ  26196.05385824  .00000353  00000+0  23140-4 0  9990
2 52630  53.1600  53.7871 0001003  87.4088 272.7028 15.31696882230263
STARLINK-3794           
1 52631U 22052AK  26196.83335647  .01167438  00000+0  34116-1 0  9996
2 52631  53.1607  51.9523 0001249 117.6571 102.5600 15.32213477  5835
STARLINK-3995           
1 52632U 22052AL  26196.82759110  .00000717  00000+0  63177-4 0  9998
2 52632  53.1608  53.6235 0001288  80.1639 279.9498 15.08819724230348
STARLINK-3994           
1 52633U 22052AM  26196.80550422 -.00000735  00000+0 -28064-4 0  9990
2 52633  53.1603  53.7216 0001229  94.3575 265.7557 15.08845463230343
STARLINK-3974           
1 52634U 22052AN  26196.83335647  .00017221  00000+0  89767-3 0  9996
2 52634  53.1590  53.2863 0000549  51.5176 196.2821 15.16083633  5780
STARLINK-3978           
1 52635U 22052AP  26196.78341384  .00001405  00000+0  57022-4 0  9993
2 52635  53.1603  41.6741 0000966  95.0981 265.0131 15.31707133230506
STARLINK-3967           
1 52636U 22052AQ  26196.83335647  .00018979  00000+0  10397-2 0  9991
2 52636  53.1589  53.3384 0001896  94.5337 151.9263 15.14251038  5839
STARLINK-3961           
1 52637U 22052AR  26196.83933013  .00000830  00000+0  38488-4 0  9993
2 52637  53.1613  41.3521 0000889  90.0592 270.0511 15.31703299231316
STARLINK-3941           
1 52638U 22052AS  26196.83335647  .00065585  00000+0  20849-2 0  9991
2 52638  53.1606  51.2927 0001153 117.4151 122.4436 15.32033425  5839
STARLINK-3968           
1 52639U 22052AT  26196.83335647  .00022502  00000+0  10211-2 0  9996
2 52639  53.1609  43.2078 0002342  79.2886  87.6539 15.20744063  5786
STARLINK-3977           
1 52640U 22052AU  26196.83335647  .00018423  00000+0  89141-3 0  9994
2 52640  53.1595  43.1136 0001094  32.8286  99.7403 15.18650313  5783
STARLINK-3991           
1 52641U 22052AV  26196.83335647 -.00006594  00000+0 -20099-3 0  9990
2 52641  53.1589  41.2863 0001621  82.5274  13.1874 15.31686647  5830
STARLINK-3971           
1 52642U 22052AW  26196.83335647  .00026353  00000+0  11980-2 0  9992
2 52642  53.1603  43.0693 0001481  79.3038 119.5699 15.20592130  5786
STARLINK-3963           
1 52643U 22052AX  26196.81137105  .00000498  00000+0  27817-4 0  9990
2 52643  53.1608  41.4562 0001282  98.3544 261.7603 15.31700038230506
STARLINK-3985           
1 52644U 22052AY  26196.83335647  .00023839  00000+0  11884-2 0  9993
2 52644  53.1608  43.1544 0001935 101.0486  75.5869 15.17447259  5836
STARLINK-3973           
1 52645U 22052AZ  26196.79130522  .00034023  00000+0  11767-2 0  9991
2 52645  53.1614  41.3638 0000947  80.7825 279.3283 15.29612688230501
STARLINK-3832           
1 52646U 22052BA  26196.83335647  .00022809  00000+0  93485-3 0  9999
2 52646  53.1589  42.7622 0001613  52.5003  25.4415 15.24201412  5788
STARLINK-3854           
1 52648U 22052BC  26196.83335647  .00020062  00000+0  83255-3 0  9994
2 52648  53.1586  42.8948 0000591  82.3511 307.1186 15.23861621  5786
STARLINK-3868           
1 52649U 22052BD  26196.78803933  .00000422  00000+0  25342-4 0  9999
2 52649  53.1622  41.3968 0001177  83.6485 276.4651 15.31706842230517
STARLINK-3891           
1 52650U 22052BE  26196.83335647  .00026667  00000+0  14958-2 0  9997
2 52650  53.1606  33.6659 0000929 121.3856 239.8842 15.13206907  5835
STARLINK-4004           
1 52656U 22053A   26196.63960834  .00020093  00000+0  10642-2 0  9997
2 52656  53.1614 299.1779 0001245  62.1974 297.9147 15.15416753230430
STARLINK-4084           
1 52657U 22053B   26196.71094611  .00000240  00000+0  19502-4 0  9996
2 52657  53.1609 296.7307 0001116  73.8568 286.2556 15.31704350230773
STARLINK-4082           
1 52658U 22053C   26196.53824863 -.00000282  00000+0  35285-6 0  9992
2 52658  53.1607 299.9249 0001124  89.8203 270.2917 15.08832809230537
STARLINK-3960           
1 52659U 22053D   26196.83335647  .00033982  00000+0  16471-2 0  9997
2 52659  53.1601 298.2862 0000983 103.6112 215.6600 15.18243838  5789
STARLINK-4081           
1 52660U 22053E   26196.50587279  .00001394  00000+0  56652-4 0  9992
2 52660  53.1597 297.7083 0000846  73.1359 286.9735 15.31705168230443
STARLINK-4044           
1 52662U 22053G   26196.71856654  .00000835  00000+0  70531-4 0  9994
2 52662  53.1606 299.1125 0001034  82.9073 277.2036 15.08831131230373
STARLINK-4037           
1 52663U 22053H   26196.78112552  .00000535  00000+0  51690-4 0  9996
2 52663  53.1603 298.8356 0001090  77.5468 282.5645 15.08832262230385
STARLINK-4070           
1 52664U 22053J   26196.72224940 -.00000428  00000+0 -87849-5 0  9995
2 52664  53.1607 299.0956 0000924 103.1093 257.0002 15.08837252230371
STARLINK-4064           
1 52665U 22053K   26196.50512492 -.00000393  00000+0 -66057-5 0  9993
2 52665  53.1608 300.0730 0000911  86.6876 273.4220 15.08832632230344
