OBJECT_NAME,OBJECT_ID,EPOCH,MEAN_MOTION,ECCENTRICITY,INCLINATION,RA_OF_ASC_NODE,ARG_OF_PERICENTER,MEAN_ANOMALY,EPHEMERIS_TYPE,CLASSIFICATION_TYPE,NORAD_CAT_ID,ELEMENT_SET_NO,REV_AT_EPOCH,BSTAR,MEAN_MOTION_DOT,MEAN_MOTION_DDOT
STARLINK-4022,2022-052AH,2026-07-15T19:35:48.962688,15.08831587,.0001388,53.1614,53.6332,95.8871,264.2278,0,U,52629,999,23033,.73591E-5,-.171E-5,0
STARLINK-3989,2022-052AJ,2026-07-15T01:17:33.351936,15.31696882,.00010032,53.1600,53.7871,87.4088,272.7028,0,U,52630,999,23026,.23139927E-4,.353E-5,0
STARLINK-3794,2022-052AK,2026-07-15T20:00:01.999008,15.32213477,.0001249,53.1607,51.9523,117.6571,102.5600,0,U,52631,999,583,.34116E-1,.1167438E-1,0
STARLINK-3995,2022-052AL,2026-07-15T19:51:43.871040,15.08819724,.0001288,53.1608,53.6235,80.1639,279.9498,0,U,52632,999,23034,.63177E-4,.717E-5,0
STARLINK-3994,2022-052AM,2026-07-15T19:19:55.564608,15.08845463,.0001229,53.1603,53.7216,94.3575,265.7557,0,U,52633,999,23034,-.28064E-4,-.735E-5,0
STARLINK-3974,2022-052AN,2026-07-15T20:00:01.999008,15.16083633,.0000549,53.1590,53.2863,51.5176,196.2821,0,U,52634,999,578,.89767E-3,.17221E-3,0
STARLINK-3978,2022-052AP,2026-07-15T18:48:06.955776,15.31707133,.0000966,53.1603,41.6741,95.0981,265.0131,0,U,52635,999,23050,.57022E-4,.1405E-4,0
STARLINK-3967,2022-052AQ,2026-07-15T20:00:01.999008,15.14251038,.0001896,53.1589,53.3384,94.5337,151.9263,0,U,52636,999,583,.10397E-2,.18979E-3,0
STARLINK-3961,2022-052AR,2026-07-15T20:08:38.123232,15.31703299,.0000889,53.1613,41.3521,90.0592,270.0511,0,U,52637,999,23131,.38488E-4,.83E-5,0
STARLINK-3941,2022-052AS,2026-07-15T20:00:01.999008,15.32033425,.0001153,53.1606,51.2927,117.4151,122.4436,0,U,52638,999,583,.20849E-2,.65585E-3,0
STARLINK-3968,2022-052AT,2026-07-15T20:00:01.999008,15.20744063,.0002342,53.1609,43.2078,79.2886,87.6539,0,U,52639,999,578,.10211E-2,.22502E-3,0
STARLINK-3977,2022-052AU,2026-07-15T20:00:01.999008,15.18650313,.0001094,53.1595,43.1136,32.8286,99.7403,0,U,52640,999,578,.89141E-3,.18423E-3,0
STARLINK-3991,2022-052AV,2026-07-15T20:00:01.999008,15.31686647,.0001621,53.1589,41.2863,82.5274,13.1874,0,U,52641,999,583,-.20099E-3,-.6594E-4,0
STARLINK-3971,2022-052AW,2026-07-15T20:00:01.999008,15.20592130,.0001481,53.1603,43.0693,79.3038,119.5699,0,U,52642,999,578,.1198E-2,.26353E-3,0
STARLINK-3963,2022-052AX,2026-07-15T19:28:22.458720,15.31700038,.0001282,53.1608,41.4562,98.3544,261.7603,0,U,52643,999,23050,.27817E-4,.498E-5,0
STARLINK-3985,2022-052AY,2026-07-15T20:00:01.999008,15.17447259,.0001935,53.1608,43.1544,101.0486,75.5869,0,U,52644,999,583,.11884E-2,.23839E-3,0
STARLINK-3973,2022-052AZ,2026-07-15T18:59:28.771008,15.29612688,.0000947,53.1614,41.3638,80.7825,279.3283,0,U,52645,999,23050,.11767E-2,.34023E-3,0
STARLINK-3832,2022-052BA,2026-07-15T20:00:01.999008,15.24201412,.0001613,53.1589,42.7622,52.5003,25.4415,0,U,52646,999,578,.93485E-3,.22809E-3,0
STARLINK-3854,2022-052BC,2026-07-15T20:00:01.999008,15.23861621,.0000591,53.1586,42.8948,82.3511,307.1186,0,U,52648,999,578,.83255E-3,.20062E-3,0
STARLINK-3868,2022-052BD,2026-07-15T18:54:46.598112,15.31706842,.0001177,53.1622,41.3968,83.6485,276.4651,0,U,52649,999,23051,.25342E-4,.422E-5,0
STARLINK-3891,2022-052BE,2026-07-15T20:00:01.999008,15.13206907,.0000929,53.1606,33.6659,121.3856,239.8842,0,U,52650,999,583,.14958E-2,.26667E-3,0
STARLINK-4004,2022-053A,2026-07-15T15:21:02.160576,15.15416753,.0001245,53.1614,299.1779,62.1974,297.9147,0,U,52656,999,23043,.10642E-2,.20093E-3,0
STARLINK-4084,2022-053B,2026-07-15T17:03:45.743904,15.31704350,.0001116,53.1609,296.7307,73.8568,286.2556,0,U,52657,999,23077,.19502E-4,.24E-5,0
STARLINK-4082,2022-053C,2026-07-15T12:55:04.681632,15.08832809,.00011244,53.1607,299.9249,89.8203,270.2917,0,U,52658,999,23053,.352846E-6,-.282E-5,0
STARLINK-3960,2022-053D,2026-07-15T20:00:01.999008,15.18243838,.0000983,53.1601,298.2862,103.6112,215.6600,0,U,52659,999,578,.16471E-2,.33982E-3,0
STARLINK-4081,2022-053E,2026-07-15T12:08:27.409056,15.31705168,.00008461,53.1597,297.7083,73.1359,286.9735,0,U,52660,999,23044,.56652338E-4,.1394E-4,0
STARLINK-4044,2022-053G,2026-07-15T17:14:44.149056,15.08831131,.0001034,53.1606,299.1125,82.9073,277.2036,0,U,52662,999,23037,.70531E-4,.835E-5,0
STARLINK-4037,2022-053H,2026-07-15T18:44:49.244928,15.08832262,.000109,53.1603,298.8356,77.5468,282.5645,0,U,52663,999,23038,.5169E-4,.535E-5,0
STARLINK-4070,2022-053J,2026-07-15T17:20:02.348160,15.08837252,.0000924,53.1607,299.0956,103.1093,257.0002,0,U,52664,999,23037,-.87849E-5,-.428E-5,0
STARLINK-4064,2022-053K,2026-07-15T12:07:22.793088,15.08832632,.00009112,53.1608,300.0730,86.6876,273.4220,0,U,52665,999,23034,-.6605674E-5,-.393E-5,0
